     2.10           GLONASS NAV DATA                        RINEX VERSION / TYPE
SPIDER V4,0,0,3554                      2015 03 13 00:48    PGM / RUN BY / DATE 
  2015     2    14   3.725290298462e-009                    CORR TO SYSTEM TIME 
    16                                                      LEAP SECONDS        
                                                            END OF HEADER       
 1 15 02 13 20 15  0.0-1.562377437949D-04 0.000000000000D+00 7.200000000000D+04
    1.069890332031D+04 5.381927490234D-01 1.862645149231D-09 0.000000000000D+00
   -2.170216894531D+04-9.784851074219D-01 0.000000000000D+00 1.000000000000D+00
    8.099167480469D+03-3.328818321228D+00 0.000000000000D+00 0.000000000000D+00
 2 15 02 13 10 15  0.0 1.183301210403D-04 1.818989403546D-12 3.600000000000D+04
    2.301143066406D+03 2.116203308105D-03-1.862645149231D-09 0.000000000000D+00
    2.331103222656D+04 1.386169433594D+00 9.313225746155D-10-4.000000000000D+00
    1.009039648438D+04-3.214548110962D+00-0.000000000000D+00 0.000000000000D+00
 3 15 02 13 12 45  0.0 3.514345735312D-05 0.000000000000D+00 4.500000000000D+04
    1.168129248047D+04-1.181087493896D-01-0.000000000000D+00 0.000000000000D+00
    2.239029150391D+04-4.906272888184D-01 9.313225746155D-10 5.000000000000D+00
   -3.476053222656D+03-3.528573989868D+00 9.313225746155D-10 0.000000000000D+00
 4 15 02 13 14 45  0.0 1.093335449696D-04 9.094947017729D-13 5.220000000000D+04
    1.756221289063D+04-1.196266174316D+00 0.000000000000D+00 0.000000000000D+00
    1.522771142578D+04-8.101053237915D-01 9.313225746155D-10 6.000000000000D+00
   -1.049025390625D+04-3.176790237427D+00 1.862645149231D-09 0.000000000000D+00
 5 15 02 13 16 15  0.0 2.215616405010D-06 0.000000000000D+00 5.760000000000D+04
    2.122177685547D+04-1.592783927917D+00 0.000000000000D+00 0.000000000000D+00
    7.846389648438D+03-2.782688140869D-01 9.313225746155D-10 1.000000000000D+00
   -1.180146923828D+04-3.052179336548D+00 1.862645149231D-09 0.000000000000D+00
 6 15 02 13 17 45  0.0 6.251689046621D-05 0.000000000000D+00 6.300000000000D+04
    2.238088671875D+04-1.630990028381D+00 9.313225746155D-10 0.000000000000D+00
   -6.187338867188D+02 3.747072219849D-01 0.000000000000D+00-4.000000000000D+00
   -1.221441601563D+04-3.014825820923D+00 1.862645149231D-09 0.000000000000D+00
 7 15 02 13 18 45  0.0-1.147724688053D-04-9.094947017729D-13 6.660000000000D+04
    2.237642578125D+04-1.002506256104D+00 9.313225746155D-10 0.000000000000D+00
   -9.311293457031D+03 4.428129196167D-01 0.000000000000D+00 5.000000000000D+00
   -7.899479980469D+03-3.352531433105D+00 1.862645149231D-09 0.000000000000D+00
 8 15 02 13 19 45  0.0-2.628192305565D-05 0.000000000000D+00 7.020000000000D+04
    1.844852441406D+04-4.120941162109D-01 9.313225746155D-10 0.000000000000D+00
   -1.734658789063D+04 2.051134109497D-01 0.000000000000D+00 6.000000000000D+00
   -3.112001464844D+03-3.534091949463D+00 9.313225746155D-10 0.000000000000D+00
 9 15 02 13 20 45  0.0-4.470348358154D-06 9.094947017729D-13 7.380000000000D+04
    1.170928222656D+04-8.002281188965D-02 9.313225746155D-10 0.000000000000D+00
    2.245271386719D+04-5.145750045776D-01-9.313225746155D-10-2.000000000000D+00
   -3.544354003906D+03-3.533860206604D+00 9.313225746155D-10 0.000000000000D+00
10 15 02 13 22 45  0.0 8.021481335163D-06 0.000000000000D+00 8.100000000000D+04
    1.698436132813D+04-1.275510787964D+00-0.000000000000D+00 0.000000000000D+00
    1.516865673828D+04-9.361238479614D-01-0.000000000000D+00-7.000000000000D+00
   -1.144158300781D+04-3.145140647888D+00 1.862645149231D-09 0.000000000000D+00
11 15 02 13 23 45  0.0 9.927898645401D-07 9.094947017729D-13 8.460000000000D+04
    2.321868261719D+04-8.121261596680D-01-0.000000000000D+00 0.000000000000D+00
    8.489737304688D+03-4.129457473755D-01-9.313225746155D-10 0.000000000000D+00
   -6.471507324219D+03-3.447095870972D+00 9.313225746155D-10 0.000000000000D+00
12 15 02 13 23 45  0.0-5.524605512619D-06 0.000000000000D+00 8.460000000000D+04
    2.267198388672D+04 1.579170227051D+00 9.313225746155D-10 0.000000000000D+00
   -2.270166015625D+01 2.212171554565D-01-1.862645149231D-09-1.000000000000D+00
    1.150984228516D+04-3.116841316223D+00 0.000000000000D+00 0.000000000000D+00
13 15 02 13 23 45  0.0-4.717335104942D-04-9.094947017729D-13 8.460000000000D+04
    8.457363281250D+03 3.015508651733D+00 1.862645149231D-09 0.000000000000D+00
   -8.563250000000D+03 6.515331268311D-01-1.862645149231D-09-2.000000000000D+00
    2.247451806641D+04-8.855295181274D-01-9.313225746155D-10 0.000000000000D+00
14 15 02 13 14 15  0.0 1.309998333454D-04 3.637978807092D-12 5.040000000000D+04
   -6.197822753906D+03-2.612044334412D+00 0.000000000000D+00 0.000000000000D+00
    1.297877880859D+04 1.242218971252D+00 2.793967723846D-09-7.000000000000D+00
    2.103074511719D+04-1.540885925293D+00-0.000000000000D+00 0.000000000000D+00
15 15 02 13 15 45  0.0 3.894697874784D-05 9.094947017729D-13 5.580000000000D+04
   -2.807655273438D+03-1.795808792114D+00 9.313225746155D-10 0.000000000000D+00
    1.577377343750D+04 2.050108909607D+00 2.793967723846D-09 0.000000000000D+00
    1.989691406250D+04-1.869433403015D+00-0.000000000000D+00 0.000000000000D+00
16 15 02 13 18 15  0.0-2.141017466784D-05 9.094947017729D-13 6.480000000000D+04
    2.503520507813D+03 1.162528991699D-03 1.862645149231D-09 0.000000000000D+00
    2.294964892578D+04 1.487405776978D+00 9.313225746155D-10-1.000000000000D+00
    1.073228417969D+04-3.178397178650D+00 0.000000000000D+00 0.000000000000D+00
17 15 02 13 09 45  0.0 1.487825065851D-04 9.094947017729D-13 3.420000000000D+04
    2.202568408203D+04-1.739173889160D+00 2.793967723846D-09 0.000000000000D+00
    5.500634765625D+01 3.201456069946D-01-1.862645149231D-09 4.000000000000D+00
   -1.280491699219D+04-2.985807418823D+00-0.000000000000D+00 0.000000000000D+00
18 15 02 13 18 15  0.0 3.773439675570D-05 9.094947017729D-13 6.480000000000D+04
   -3.319510742188D+03-2.498280525208D+00 1.862645149231D-09 0.000000000000D+00
    1.085305029297D+04-1.879761695862D+00 9.313225746155D-10-3.000000000000D+00
    2.285591455078D+04 5.362863540649D-01-1.862645149231D-09 0.000000000000D+00
19 15 02 13 20 15  0.0-1.182658597827D-04-9.094947017729D-13 7.200000000000D+04
   -3.908819824219D+03-3.131248474121D+00 9.313225746155D-10 0.000000000000D+00
    1.026241943359D+04-3.737783432007D-01-0.000000000000D+00 3.000000000000D+00
    2.302851025391D+04-3.652524948120D-01-1.862645149231D-09 0.000000000000D+00
20 15 02 13 22 15  0.0-1.582782715559D-04-9.094947017729D-13 7.920000000000D+04
   -6.094583496094D+03-2.616909027100D+00 0.000000000000D+00 0.000000000000D+00
    1.313463671875D+04 1.196393966675D+00-0.000000000000D+00 2.000000000000D+00
    2.102528710938D+04-1.501872062683D+00-2.793967723846D-09 0.000000000000D+00
21 15 02 13 23 45  0.0-1.347623765469D-06 1.818989403546D-12 8.460000000000D+04
   -2.587257812500D+03-1.797741889954D+00-0.000000000000D+00 0.000000000000D+00
    1.602840283203D+04 2.008020401001D+00-0.000000000000D+00 4.000000000000D+00
    1.966983593750D+04-1.875816345215D+00-2.793967723846D-09 0.000000000000D+00
22 15 02 13 23 45  0.0 1.529688015580D-04 9.094947017729D-13 8.460000000000D+04
    1.133237792969D+04-2.165840148926D+00 9.313225746155D-10 0.000000000000D+00
    3.365148925781D+03 2.211554527283D+00-1.862645149231D-09-3.000000000000D+00
    2.259368554688D+04 7.697162628174D-01-1.862645149231D-09 0.000000000000D+00
23 15 02 13 23 45  0.0 3.689434379339D-05-3.637978807092D-12 8.460000000000D+04
    1.913536328125D+04-1.232468605042D+00 1.862645149231D-09 0.000000000000D+00
   -1.209270556641D+04 1.050828933716D+00-2.793967723846D-09 3.000000000000D+00
    1.176018066406D+04 3.085312843323D+00 0.000000000000D+00 0.000000000000D+00
24 15 02 13 08 15  0.0-1.211324706674D-04-0.000000000000D+00 2.880000000000D+04
    2.066477343750D+04-1.669632911682D+00 2.793967723846D-09 0.000000000000D+00
    8.328410156250D+03-3.653182983398D-01-9.313225746155D-10 2.000000000000D+00
   -1.244246289063D+04-3.020910263062D+00-0.000000000000D+00 0.000000000000D+00
12 15 02 14 00 15  0.0-5.524605512619D-06 0.000000000000D+00 0.000000000000D+00
    2.481680273438D+04 7.778625488281D-01 0.000000000000D+00 0.000000000000D+00
    6.069384765625D+01-9.385681152344D-02-1.862645149231D-09-1.000000000000D+00
    5.523379394531D+03-3.491182327271D+00 9.313225746155D-10 0.000000000000D+00
11 15 02 14 00 15  0.0 9.955838322639D-07 9.094947017729D-13 0.000000000000D+00
    2.097878662109D+04-1.661802291870D+00-9.313225746155D-10 0.000000000000D+00
    7.759020507813D+03-3.576211929321D-01-0.000000000000D+00 0.000000000000D+00
   -1.234762890625D+04-3.039708137512D+00 1.862645149231D-09 0.000000000000D+00
13 15 02 14 00 15  0.0-4.717363044620D-04-9.094947017729D-13 0.000000000000D+00
    1.368916259766D+04 2.746690750122D+00 1.862645149231D-09 0.000000000000D+00
   -7.837571289063D+03 1.624794006348D-01-2.793967723846D-09-2.000000000000D+00
    2.003116015625D+04-1.811634063721D+00-0.000000000000D+00 0.000000000000D+00
22 15 02 14 00 15  0.0 1.529715955257D-04 9.094947017729D-13 0.000000000000D+00
    7.683203125000D+03-1.852857589722D+00 0.000000000000D+00 0.000000000000D+00
    7.693326171875D+03 2.559573173523D+00-1.862645149231D-09-3.000000000000D+00
    2.308783349609D+04-2.238254547119D-01-1.862645149231D-09 0.000000000000D+00
23 15 02 14 00 15  0.0 3.688782453537D-05-3.637978807092D-12 0.000000000000D+00
    1.666717773438D+04-1.464140892029D+00 1.862645149231D-09 0.000000000000D+00
   -9.542541503906D+03 1.778517723083D+00-2.793967723846D-09 3.000000000000D+00
    1.678736425781D+04 2.464181900024D+00-0.000000000000D+00 0.000000000000D+00
